[{"OBJECT_NAME":"ATLAS CENTAUR 2","OBJECT_ID":"1963-047A","EPOCH":"2026-03-03T19:41:29.300928","MEAN_MOTION":14.12046989,"ECCENTRICITY":0.054781,"INCLINATION":30.3522,"RA_OF_ASC_NODE":228.4444,"ARG_OF_PERICENTER":28.5612,"MEAN_ANOMALY":334.3898,"EPHEMERIS_TYPE":0,"CLASSIFICATION_TYPE":"U","NORAD_CAT_ID":694,"ELEMENT_SET_NO":999,"REV_AT_EPOCH":13079,"BSTAR":0.00020895,"MEAN_MOTION_DOT":1.791e-5,"MEAN_MOTION_DDOT":0},{"OBJECT_NAME":"THOR AGENA D R/B","OBJECT_ID":"1964-002A","EPOCH":"2026-03-03T15:52:06.682944","MEAN_MOTION":14.34015993,"ECCENTRICITY":0.0031917,"INCLINATION":99.1227,"RA_OF_ASC_NODE":75.6701,"ARG_OF_PERICENTER":276.1434,"MEAN_ANOMALY":83.6113,"EPHEMERIS_TYPE":0,"CLASSIFICATION_TYPE":"U","NORAD_CAT_ID":733,"ELEMENT_SET_NO":999,"REV_AT_EPOCH":23743,"BSTAR":0.0001244,"MEAN_MOTION_DOT":3.0e-6,"MEAN_MOTION_DDOT":0},{"OBJECT_NAME":"SL-3 R/B","OBJECT_ID":"1964-053B","EPOCH":"2026-03-03T04:34:31.882656","MEAN_MOTION":14.61361057,"ECCENTRICITY":0.00794699,"INCLINATION":65.0788,"RA_OF_ASC_NODE":350.2898,"ARG_OF_PERICENTER":294.2851,"MEAN_ANOMALY":64.9963,"EPHEMERIS_TYPE":0,"CLASSIFICATION_TYPE":"U","NORAD_CAT_ID":877,"ELEMENT_SET_NO":999,"REV_AT_EPOCH":26584,"BSTAR":0.00011619696,"MEAN_MOTION_DOT":4.76e-6,"MEAN_MOTION_DDOT":0},{"OBJECT_NAME":"SL-8 R/B","OBJECT_ID":"1967-045B","EPOCH":"2026-03-03T19:56:59.828064","MEAN_MOTION":14.45615996,"ECCENTRICITY":0.0063948,"INCLINATION":74.0136,"RA_OF_ASC_NODE":359.0287,"ARG_OF_PERICENTER":6.6887,"MEAN_ANOMALY":353.5109,"EPHEMERIS_TYPE":0,"CLASSIFICATION_TYPE":"U","NORAD_CAT_ID":2802,"ELEMENT_SET_NO":999,"REV_AT_EPOCH":8817,"BSTAR":0.00017182,"MEAN_MOTION_DOT":5.94e-6,"MEAN_MOTION_DDOT":0},{"OBJECT_NAME":"SL-8 R/B","OBJECT_ID":"1968-040B","EPOCH":"2026-03-03T18:52:39.883872","MEAN_MOTION":15.03207553,"ECCENTRICITY":0.002417,"INCLINATION":74.033,"RA_OF_ASC_NODE":325.7556,"ARG_OF_PERICENTER":151.5126,"MEAN_ANOMALY":208.739,"EPHEMERIS_TYPE":0,"CLASSIFICATION_TYPE":"U","NORAD_CAT_ID":3230,"ELEMENT_SET_NO":999,"REV_AT_EPOCH":8912,"BSTAR":0.00031999,"MEAN_MOTION_DOT":4.317e-5,"MEAN_MOTION_DDOT":0},{"OBJECT_NAME":"OAO 2","OBJECT_ID":"1968-110A","EPOCH":"2026-03-03T17:05:31.626240","MEAN_MOTION":14.47303708,"ECCENTRICITY":0.0005236,"INCLINATION":34.9935,"RA_OF_ASC_NODE":298.5981,"ARG_OF_PERICENTER":157.2039,"MEAN_ANOMALY":202.8884,"EPHEMERIS_TYPE":0,"CLASSIFICATION_TYPE":"U","NORAD_CAT_ID":3597,"ELEMENT_SET_NO":999,"REV_AT_EPOCH":1823,"BSTAR":0.00010554,"MEAN_MOTION_DOT":3.73e-6,"MEAN_MOTION_DDOT":0},{"OBJECT_NAME":"ISIS 1","OBJECT_ID":"1969-009A","EPOCH":"2026-03-03T16:50:05.990208","MEAN_MOTION":11.30412028,"ECCENTRICITY":0.170783,"INCLINATION":88.4548,"RA_OF_ASC_NODE":155.9614,"ARG_OF_PERICENTER":101.2422,"MEAN_ANOMALY":278.4583,"EPHEMERIS_TYPE":0,"CLASSIFICATION_TYPE":"U","NORAD_CAT_ID":3669,"ELEMENT_SET_NO":999,"REV_AT_EPOCH":34785,"BSTAR":0.00013886,"MEAN_MOTION_DOT":2.18e-6,"MEAN_MOTION_DDOT":0},{"OBJECT_NAME":"SERT 2","OBJECT_ID":"1970-009A","EPOCH":"2026-03-03T17:36:47.314944","MEAN_MOTION":13.58729238,"ECCENTRICITY":0.0004815,"INCLINATION":99.2752,"RA_OF_ASC_NODE":6.1536,"ARG_OF_PERICENTER":170.2714,"MEAN_ANOMALY":250.5341,"EPHEMERIS_TYPE":0,"CLASSIFICATION_TYPE":"U","NORAD_CAT_ID":4327,"ELEMENT_SET_NO":999,"REV_AT_EPOCH":77908,"BSTAR":6.5814e-5,"MEAN_MOTION_DOT":7.0e-8,"MEAN_MOTION_DDOT":0},{"OBJECT_NAME":"SL-3 R/B","OBJECT_ID":"1971-028B","EPOCH":"2026-03-03T18:11:52.136448","MEAN_MOTION":15.60539303,"ECCENTRICITY":0.001411,"INCLINATION":81.2334,"RA_OF_ASC_NODE":59.3522,"ARG_OF_PERICENTER":311.136,"MEAN_ANOMALY":48.8674,"EPHEMERIS_TYPE":0,"CLASSIFICATION_TYPE":"U","NORAD_CAT_ID":5118,"ELEMENT_SET_NO":999,"REV_AT_EPOCH":98774,"BSTAR":0.00060673,"MEAN_MOTION_DOT":0.00050504,"MEAN_MOTION_DDOT":0},{"OBJECT_NAME":"ASTEX 1","OBJECT_ID":"1971-089A","EPOCH":"2026-03-03T18:03:44.990784","MEAN_MOTION":14.50762362,"ECCENTRICITY":0.0017842,"INCLINATION":92.713,"RA_OF_ASC_NODE":149.8399,"ARG_OF_PERICENTER":103.3753,"MEAN_ANOMALY":256.9444,"EPHEMERIS_TYPE":0,"CLASSIFICATION_TYPE":"U","NORAD_CAT_ID":5560,"ELEMENT_SET_NO":999,"REV_AT_EPOCH":86144,"BSTAR":0.00016579,"MEAN_MOTION_DOT":6.52e-6,"MEAN_MOTION_DDOT":0},{"OBJECT_NAME":"SL-8 R/B","OBJECT_ID":"1971-119B","EPOCH":"2026-03-03T17:49:46.701696","MEAN_MOTION":14.37668587,"ECCENTRICITY":0.0549919,"INCLINATION":73.888,"RA_OF_ASC_NODE":186.8316,"ARG_OF_PERICENTER":154.7054,"MEAN_ANOMALY":208.2157,"EPHEMERIS_TYPE":0,"CLASSIFICATION_TYPE":"U","NORAD_CAT_ID":5730,"ELEMENT_SET_NO":999,"REV_AT_EPOCH":65463,"BSTAR":0.00084216,"MEAN_MOTION_DOT":0.00016218,"MEAN_MOTION_DDOT":0},{"OBJECT_NAME":"OAO 3 (COPERNICUS)","OBJECT_ID":"1972-065A","EPOCH":"2026-03-03T18:45:53.465184","MEAN_MOTION":14.59992338,"ECCENTRICITY":0.0005981,"INCLINATION":35.0067,"RA_OF_ASC_NODE":330.9748,"ARG_OF_PERICENTER":115.7053,"MEAN_ANOMALY":281.6074,"EPHEMERIS_TYPE":0,"CLASSIFICATION_TYPE":"U","NORAD_CAT_ID":6153,"ELEMENT_SET_NO":999,"REV_AT_EPOCH":84533,"BSTAR":0.00011312,"MEAN_MOTION_DOT":5.3e-6,"MEAN_MOTION_DDOT":0},{"OBJECT_NAME":"ATLAS CENTAUR R/B","OBJECT_ID":"1972-065B","EPOCH":"2026-03-03T04:58:05.740032","MEAN_MOTION":14.77665963,"ECCENTRICITY":0.00342271,"INCLINATION":35.0029,"RA_OF_ASC_NODE":343.7438,"ARG_OF_PERICENTER":314.6412,"MEAN_ANOMALY":45.15,"EPHEMERIS_TYPE":0,"CLASSIFICATION_TYPE":"U","NORAD_CAT_ID":6155,"ELEMENT_SET_NO":999,"REV_AT_EPOCH":84030,"BSTAR":0.00024755187,"MEAN_MOTION_DOT":1.795e-5,"MEAN_MOTION_DDOT":0},{"OBJECT_NAME":"SL-8 R/B","OBJECT_ID":"1975-112B","EPOCH":"2026-03-03T09:09:52.354944","MEAN_MOTION":14.38199162,"ECCENTRICITY":0.00145706,"INCLINATION":74.0616,"RA_OF_ASC_NODE":30.5149,"ARG_OF_PERICENTER":126.3445,"MEAN_ANOMALY":233.9057,"EPHEMERIS_TYPE":0,"CLASSIFICATION_TYPE":"U","NORAD_CAT_ID":8459,"ELEMENT_SET_NO":999,"REV_AT_EPOCH":63096,"BSTAR":0.00010160439,"MEAN_MOTION_DOT":2.83e-6,"MEAN_MOTION_DDOT":0},{"OBJECT_NAME":"SL-3 R/B","OBJECT_ID":"1977-057B","EPOCH":"2026-03-03T18:17:11.946912","MEAN_MOTION":15.45292353,"ECCENTRICITY":0.0006398,"INCLINATION":97.5758,"RA_OF_ASC_NODE":234.423,"ARG_OF_PERICENTER":309.8653,"MEAN_ANOMALY":50.2032,"EPHEMERIS_TYPE":0,"CLASSIFICATION_TYPE":"U","NORAD_CAT_ID":10114,"ELEMENT_SET_NO":999,"REV_AT_EPOCH":66741,"BSTAR":0.00036409,"MEAN_MOTION_DOT":0.00017271,"MEAN_MOTION_DDOT":0},{"OBJECT_NAME":"SEASAT 1","OBJECT_ID":"1978-064A","EPOCH":"2026-03-03T18:06:55.740384","MEAN_MOTION":14.46154941,"ECCENTRICITY":0.0002169,"INCLINATION":108.0123,"RA_OF_ASC_NODE":113.0459,"ARG_OF_PERICENTER":287.9856,"MEAN_ANOMALY":72.1053,"EPHEMERIS_TYPE":0,"CLASSIFICATION_TYPE":"U","NORAD_CAT_ID":10967,"ELEMENT_SET_NO":999,"REV_AT_EPOCH":50565,"BSTAR":0.00012677,"MEAN_MOTION_DOT":3.16e-6,"MEAN_MOTION_DDOT":0},{"OBJECT_NAME":"SL-14 R/B","OBJECT_ID":"1979-011B","EPOCH":"2026-03-03T14:40:11.689824","MEAN_MOTION":14.91899894,"ECCENTRICITY":0.0017599,"INCLINATION":82.5215,"RA_OF_ASC_NODE":102.3401,"ARG_OF_PERICENTER":79.1522,"MEAN_ANOMALY":281.1677,"EPHEMERIS_TYPE":0,"CLASSIFICATION_TYPE":"U","NORAD_CAT_ID":11267,"ELEMENT_SET_NO":999,"REV_AT_EPOCH":52787,"BSTAR":7.1785e-5,"MEAN_MOTION_DOT":7.53e-6,"MEAN_MOTION_DDOT":0}]
