ATLAS CENTAUR 2         
1 00694U 63047A   26062.82047802  .00001791  00000+0  20895-3 0  9990
2 00694  30.3522 228.4444 0547810  28.5612 334.3898 14.12046989130795
THOR AGENA D R/B        
1 00733U 64002A   26062.66118846  .00000300  00000+0  12440-3 0  9997
2 00733  99.1227  75.6701 0031917 276.1434  83.6113 14.34015993237439
SL-3 R/B                
1 00877U 64053B   26062.19064679  .00000476  00000+0  11620-3 0  9997
2 00877  65.0788 350.2898 0079469 294.2851  64.9963 14.61361057265845
SL-8 R/B                
1 02802U 67045B   26062.83124801  .00000594  00000+0  17182-3 0  9996
2 02802  74.0136 359.0287 0063948   6.6887 353.5109 14.45615996 88174
SL-8 R/B                
1 03230U 68040B   26062.78657273  .00004317  00000+0  31999-3 0  9995
2 03230  74.0330 325.7556 0024170 151.5126 208.7390 15.03207553 89125
OAO 2                   
1 03597U 68110A   26062.71217160  .00000373  00000+0  10554-3 0  9991
2 03597  34.9935 298.5981 0005236 157.2039 202.8884 14.47303708 18237
ISIS 1                  
1 03669U 69009A   26062.70145822  .00000218  00000+0  13886-3 0  9992
2 03669  88.4548 155.9614 1707830 101.2422 278.4583 11.30412028347858
SERT 2                  
1 04327U 70009A   26062.73388096  .00000007  00000+0  65814-4 0  9996
2 04327  99.2752   6.1536 0004815 170.2714 250.5341 13.58729238779082
SL-3 R/B                
1 05118U 71028B   26062.75824232  .00050504  00000+0  60673-3 0  9990
2 05118  81.2334  59.3522 0014110 311.1360  48.8674 15.60539303987743
ASTEX 1                 
1 05560U 71089A   26062.75260406  .00000652  00000+0  16579-3 0  9990
2 05560  92.7130 149.8399 0017842 103.3753 256.9444 14.50762362861440
SL-8 R/B                
1 05730U 71119B   26062.74290164  .00016218  00000+0  84216-3 0  9994
2 05730  73.8880 186.8316 0549919 154.7054 208.2157 14.37668587654631
OAO 3 (COPERNICUS)      
1 06153U 72065A   26062.78186881  .00000530  00000+0  11312-3 0  9996
2 06153  35.0067 330.9748 0005981 115.7053 281.6074 14.59992338845331
ATLAS CENTAUR R/B       
1 06155U 72065B   26062.20701088  .00001795  00000+0  24755-3 0  9996
2 06155  35.0029 343.7438 0034227 314.6412  45.1500 14.77665963840303
SL-8 R/B                
1 08459U 75112B   26062.38185596  .00000283  00000+0  10160-3 0  9996
2 08459  74.0616  30.5149 0014570 126.3445 233.9057 14.38199162630963
SL-3 R/B                
1 10114U 77057B   26062.76194383  .00017271  00000+0  36409-3 0  9992
2 10114  97.5758 234.4230 0006398 309.8653  50.2032 15.45292353667413
SEASAT 1                
1 10967U 78064A   26062.75481181  .00000316  00000+0  12677-3 0  9994
2 10967 108.0123 113.0459 0002169 287.9856  72.1053 14.46154941505654
SL-14 R/B               
1 11267U 79011B   26062.61124641  .00000753  00000+0  71785-4 0  9992
2 11267  82.5215 102.3401 0017599  79.1522 281.1677 14.91899894527873
